NORAD_CAT_ID,OBJECT_NAME,OBJECT_TYPE,EPOCH,MEAN_MOTION,ECCENTRICITY,INCLINATION,RA_OF_ASC_NODE,ARG_OF_PERICENTER,MEAN_ANOMALY,BSTAR,MEAN_MOTION_DOT,MEAN_MOTION_DDOT,TLE_LINE0,TLE_LINE1,TLE_LINE2,SEMIMAJOR_AXIS,PERIOD,APOGEE,PERIGEE,DECAYED
50819.0,STARLINK-3327,PAYLOAD,2024-08-03 20:33:06,15.08860923,0.0001442,53.2167,265.5589,75.5207,284.5945,9.1925e-05,1.176e-05,0.0,0 STARLINK-3327,1 50819U 22001S   24216.85632603  .00001176  00000-0  91925-4 0  9991,2 50819  53.2167 265.5589 0001442  75.5207 284.5945 15.08860923143621,6917.816,95.436,540.679,538.684,0.0
50819.0,STARLINK-3327,PAYLOAD,2024-08-04 02:54:39,15.08840838,0.0002182,53.2155,264.3745,88.4863,271.6379,0.00025237,3.731e-05,0.0,0 STARLINK-3327,1 50819U 22001S   24217.12129614  .00003731  00000-0  25237-3 0  9996,2 50819  53.2155 264.3745 0002182  88.4863 271.6379 15.08840838143667,6917.878,95.438,541.252,538.233,0.0
50819.0,STARLINK-3327,PAYLOAD,2024-08-04 12:26:59,15.08842935,0.0001405,53.215,262.5882,88.35,271.7654,0.00021703,3.168e-05,0.0,0 STARLINK-3327,1 50819U 22001S   24217.51874023  .00003168  00000-0  21703-3 0  9998,2 50819  53.2150 262.5882 0001405  88.3500 271.7654 15.08842935143722,6917.871,95.437,540.708,538.764,0.0
50819.0,STARLINK-3327,PAYLOAD,2024-08-04 20:23:54,15.08857773,0.0001407,53.215,261.1021,88.3938,271.7216,0.00040107,6.104e-05,0.0,0 STARLINK-3327,1 50819U 22001S   24217.84993371  .00006104  00000-0  40107-3 0  9994,2 50819  53.2150 261.1021 0001407  88.3938 271.7216 15.08857773143774,6917.826,95.436,540.664,538.718,0.0
50819.0,STARLINK-3327,PAYLOAD,2024-08-05 02:45:26,15.08852756,0.0001512,53.2143,259.9136,92.9926,267.124,0.00026448,3.925e-05,0.0,0 STARLINK-3327,1 50819U 22001S   24218.11489543  .00003925  00000-0  26448-3 0  9996,2 50819  53.2143 259.9136 0001512  92.9926 267.1240 15.08852756143810,6917.841,95.437,540.752,538.66,0.0
50819.0,STARLINK-3327,PAYLOAD,2024-08-05 09:06:59,15.08847035,0.0001457,53.2141,258.723,92.8883,267.2275,0.00013658,1.887e-05,0.0,0 STARLINK-3327,1 50819U 22001S   24218.37985621  .00001887  00000-0  13658-3 0  9996,2 50819  53.2141 258.7230 0001457  92.8883 267.2275 15.08847035143856,6917.859,95.437,540.732,538.716,0.0
50819.0,STARLINK-3327,PAYLOAD,2024-08-05 20:14:41,15.0885448,0.0001443,53.2143,256.6414,92.5984,267.5173,0.00023739,3.494e-05,0.0,0 STARLINK-3327,1 50819U 22001S   24218.84353054  .00003494  00000-0  23739-3 0  9994,2 50819  53.2143 256.6414 0001443  92.5984 267.5173 15.08854480143923,6917.836,95.437,540.699,538.703,0.0
50819.0,STARLINK-3327,PAYLOAD,2024-08-06 05:47:00,15.08828984,0.0001391,53.2155,254.8567,84.4091,275.706,-0.00018565,-3.24e-05,0.0,0 STARLINK-3327,1 50819U 22001S   24219.24098036 -.00003240  00000-0 -18565-3 0  9997,2 50819  53.2155 254.8567 0001391  84.4091 275.7060 15.08828984143988,6917.914,95.438,540.741,538.817,0.0
50819.0,STARLINK-3327,PAYLOAD,2024-08-06 12:08:33,15.08832524,0.0001498,53.2159,253.6674,83.1765,276.9397,-8.7685e-05,-1.683e-05,0.0,0 STARLINK-3327,1 50819U 22001S   24219.50594110 -.00001683  00000-0 -87685-4 0  9999,2 50819  53.2159 253.6674 0001498  83.1765 276.9397 15.08832524144027,6917.903,95.438,540.805,538.732,0.0
50819.0,STARLINK-3327,PAYLOAD,2024-08-07 02:27:01,15.08839911,0.0001499,53.2159,250.9922,81.2091,278.9071,0.00016644,2.362e-05,0.0,0 STARLINK-3327,1 50819U 22001S   24220.10210093  .00002362  00000-0  16644-3 0  9991,2 50819  53.2159 250.9922 0001499  81.2091 278.9071 15.08839911144113,6917.881,95.438,540.783,538.709,0.0
50819.0,STARLINK-3327,PAYLOAD,2024-08-07 05:37:47,15.08840724,0.0001477,53.2145,250.3965,78.9775,281.1384,0.00026548,3.94e-05,0.0,0 STARLINK-3327,1 50819U 22001S   24220.23458126  .00003940  00000-0  26548-3 0  9993,2 50819  53.2145 250.3965 0001477  78.9775 281.1384 15.08840724144136,6917.878,95.438,540.765,538.721,0.0
50819.0,STARLINK-3327,PAYLOAD,2024-08-08 08:39:21,15.08847325,0.0001479,53.215,245.3414,74.3229,285.7926,0.00031402,4.714e-05,0.0,0 STARLINK-3327,1 50819U 22001S   24221.36066107  .00004714  00000-0  31402-3 0  9997,2 50819  53.2150 245.3414 0001479  74.3229 285.7926 15.08847325143103,6917.858,95.437,540.746,538.7,0.0
50819.0,STARLINK-3327,PAYLOAD,2024-08-09 05:19:21,15.08838859,0.000143,53.2149,241.4728,97.0237,263.0918,5.9281e-06,-1.94e-06,0.0,0 STARLINK-3327,1 50819U 22001S   24222.22178119 -.00000194  00000-0  59281-5 0  9996,2 50819  53.2149 241.4728 0001430  97.0237 263.0918 15.08838859144433,6917.884,95.438,540.738,538.76,0.0
50819.0,STARLINK-3327,PAYLOAD,2024-08-09 08:30:07,15.08855313,0.0001339,53.2154,240.8802,95.2867,264.8278,-0.00054865,-9.013e-05,0.0,0 STARLINK-3327,1 50819U 22001S   24222.35425211 -.00009013  00000-0 -54865-3 0  9999,2 50819  53.2154 240.8802 0001339  95.2867 264.8278 15.08855313144456,6917.834,95.437,540.625,538.772,0.0
50819.0,STARLINK-3327,PAYLOAD,2024-08-09 18:02:26,15.08847034,0.000141,53.2164,239.0961,103.1687,256.9463,7.4731e-05,9.02e-06,0.0,0 STARLINK-3327,1 50819U 22001S   24222.75169935  .00000902  00000-0  74731-4 0  9992,2 50819  53.2164 239.0961 0001410 103.1687 256.9463 15.08847034144518,6917.859,95.437,540.699,538.748,0.0
50819.0,STARLINK-3327,PAYLOAD,2024-08-10 00:23:59,15.08838908,0.0001487,53.2167,237.9094,89.8309,270.2854,0.00012082,1.635e-05,0.0,0 STARLINK-3327,1 50819U 22001S   24223.01666365  .00001635  00000-0  12082-3 0  9995,2 50819  53.2167 237.9094 0001487  89.8309 270.2854 15.08838908144557,6917.884,95.438,540.777,538.72,0.0
50819.0,STARLINK-3327,PAYLOAD,2024-08-10 08:20:55,15.08835723,0.0001442,53.2162,236.4197,83.747,276.3686,5.9406e-05,6.58e-06,0.0,0 STARLINK-3327,1 50819U 22001S   24223.34786870  .00000658  00000-0  59406-4 0  9991,2 50819  53.2162 236.4197 0001442  83.7470 276.3686 15.08835723144601,6917.893,95.438,540.756,538.761,0.0
50819.0,STARLINK-3327,PAYLOAD,2024-08-11 09:47:05,15.08846438,0.0001532,53.2168,231.6616,83.0215,277.0951,0.00019143,2.76e-05,0.0,0 STARLINK-3327,1 50819U 22001S   24224.40770217  .00002760  00000-0  19143-3 0  9996,2 50819  53.2168 231.6616 0001532  83.0215 277.0951 15.08846438144765,6917.861,95.437,540.786,538.666,0.0
50819.0,STARLINK-3327,PAYLOAD,2024-08-11 17:44:00,15.08855263,0.0001613,53.2163,230.1745,77.8668,282.2505,0.00033356,5.027e-05,0.0,0 STARLINK-3327,1 50819U 22001S   24224.73889848  .00005027  00000-0  33356-3 0  9994,2 50819  53.2163 230.1745 0001613  77.8668 282.2505 15.08855263144815,6917.834,95.437,540.815,538.583,0.0
50819.0,STARLINK-3327,PAYLOAD,2024-08-12 04:51:43,15.08837503,0.0001919,53.2158,228.0925,81.5401,278.5809,0.0001164,1.565e-05,0.0,0 STARLINK-3327,1 50819U 22001S   24225.20258838  .00001565  00000-0  11640-3 0  9991,2 50819  53.2158 228.0925 0001919  81.5401 278.5809 15.08837503144880,6917.888,95.438,541.081,538.425,0.0
50819.0,STARLINK-3327,PAYLOAD,2024-08-12 09:37:53,15.08831299,0.0001351,53.2158,227.1999,84.7911,275.3235,-8.5037e-05,-1.641e-05,0.0,0 STARLINK-3327,1 50819U 22001S   24225.40130869 -.00001641  00000-0 -85037-4 0  9995,2 50819  53.2158 227.1999 0001351  84.7911 275.3235 15.08831299144910,6917.907,95.438,540.707,538.837,0.0
50819.0,STARLINK-3327,PAYLOAD,2024-08-12 17:34:48,15.0884481,0.0001425,53.2159,225.7173,75.2385,284.8765,0.00019455,2.81e-05,0.0,0 STARLINK-3327,1 50819U 22001S   24225.73250611  .00002810  00000-0  19455-3 0  9996,2 50819  53.2159 225.7173 0001425  75.2385 284.8765 15.08844810144962,6917.866,95.437,540.716,538.745,0.0
50819.0,STARLINK-3327,PAYLOAD,2024-08-13 04:42:30,15.08841345,0.0001176,53.2156,223.6354,87.1452,272.9675,0.0004491,6.867e-05,0.0,0 STARLINK-3327,1 50819U 22001S   24226.19618673  .00006867  00000-0  44910-3 0  9993,2 50819  53.2156 223.6354 0001176  87.1452 272.9675 15.08841345145034,6917.876,95.437,540.555,538.928,0.0
50819.0,STARLINK-3327,PAYLOAD,2024-08-13 06:17:53,15.08849202,0.0001396,53.2153,223.3357,88.4021,271.7131,0.00049982,7.678e-05,0.0,0 STARLINK-3327,1 50819U 22001S   24226.26242442  .00007678  00000-0  49982-3 0  9993,2 50819  53.2153 223.3357 0001396  88.4021 271.7131 15.08849202145046,6917.852,95.437,540.683,538.752,0.0
50819.0,STARLINK-3327,PAYLOAD,2024-08-13 17:25:35,15.08858946,0.0001352,53.2147,221.2537,89.781,270.3337,0.0006464,0.0001002,0.0,0 STARLINK-3327,1 50819U 22001S   24226.72610070  .00010020  00000-0  64640-3 0  9993,2 50819  53.2147 221.2537 0001352  89.7810 270.3337 15.08858946145114,6917.822,95.436,540.623,538.752,0.0
50819.0,STARLINK-3327,PAYLOAD,2024-08-14 06:08:40,15.08832358,0.0001098,53.2158,218.8773,78.9932,281.1183,-0.00015054,-2.682e-05,0.0,0 STARLINK-3327,1 50819U 22001S   24227.25602656 -.00002682  00000-0 -15054-3 0  9995,2 50819  53.2158 218.8773 0001098  78.9932 281.1183 15.08832358145198,6917.904,95.438,540.528,539.009,0.0
50819.0,STARLINK-3327,PAYLOAD,2024-08-14 09:19:26,15.08835745,0.0001242,53.2154,218.2805,87.2766,272.8368,7.1004e-06,-1.75e-06,0.0,0 STARLINK-3327,1 50819U 22001S   24227.38850683 -.00000175  00000-0  71004-5 0  9997,2 50819  53.2154 218.2805 0001242  87.2766 272.8368 15.08835745145211,6917.893,95.438,540.618,538.899,0.0
50819.0,STARLINK-3327,PAYLOAD,2024-08-15 05:59:28,15.08840965,0.0001171,53.2149,214.4147,82.3841,277.7284,0.00069641,0.00010813,0.0,0 STARLINK-3327,1 50819U 22001S   24228.24963294  .00010813  00000-0  69641-3 0  9997,2 50819  53.2149 214.4147 0001171  82.3841 277.7284 15.08840965145348,6917.877,95.437,540.553,538.932,0.0
50819.0,STARLINK-3327,PAYLOAD,2024-08-16 05:50:15,15.08842101,0.0001151,53.2144,209.9536,83.3341,276.7782,0.00025253,3.734e-05,0.0,0 STARLINK-3327,1 50819U 22001S   24229.24323339  .00003734  00000-0  25253-3 0  9993,2 50819  53.2144 209.9536 0001151  83.3341 276.7782 15.08842101145490,6917.874,95.437,540.535,538.943,0.0
50819.0,STARLINK-3327,PAYLOAD,2024-08-16 21:44:06,15.08840348,0.0001133,53.214,206.9794,81.6297,278.4824,0.00013635,1.883e-05,0.0,0 STARLINK-3327,1 50819U 22001S   24229.90563394  .00001883  00000-0  13635-3 0  9997,2 50819  53.2140 206.9794 0001133  81.6297 278.4824 15.08840348145598,6917.879,95.438,540.528,538.961,0.0
